#cP2010  5 10  0  0  0.00000000      96 U     WGS84 BRD NCKU
## 1583  86400.00000000   900.00000000 55326 0.0000000000000
+   32   G01G02G03G04G05G06G07G08G09G10G11G12G13G14G15G16G17
+        G18G19G20G21G22G23G24G25G26G27G28G29G30G31G32  0  0
+          0  0  0  0  0  0  0  0  0  0  0  0  0  0  0  0  0
+          0  0  0  0  0  0  0  0  0  0  0  0  0  0  0  0  0
+          0  0  0  0  0  0  0  0  0  0  0  0  0  0  0  0  0
++         0  0  0  0  0  0  0  0  0  0  0  0  0  0  0  0  0
++         0  0  0  0  0  0  0  0  0  0  0  0  0  0  0  0  0
++         0  0  0  0  0  0  0  0  0  0  0  0  0  0  0  0  0
++         0  0  0  0  0  0  0  0  0  0  0  0  0  0  0  0  0
++         0  0  0  0  0  0  0  0  0  0  0  0  0  0  0  0  0
%c G  cc GPS ccc cccc cccc cccc cccc ccccc ccccc ccccc ccccc
%c cc cc ccc ccc cccc cccc cccc cccc ccccc ccccc ccccc ccccc
%f  1.2500000  1.025000000  0.00000000000  0.000000000000000
%f  0.0000000  0.000000000  0.00000000000  0.000000000000000
%i    0    0    0    0      0      0      0      0         0
%i    0    0    0    0      0      0      0      0         0
/*                                                          
/*                                                          
/*                                                          
/*                                                          
*  2010  5 10  9  0  0.00000000
PG01 -11521.777888  13868.690522  19354.781244   -117.837750
PG02  -1678.265840 -16754.454094  20602.727905    254.321027
PG03  -3747.661730  20881.898444 -16132.089190    553.015467
PG04  14767.758100  -9634.481577  19791.226375     78.685134
PG05  -1837.965314 -26299.017770   2815.210247     -2.717614
PG06  -9230.220454  20932.414687 -13190.397360    644.035928
PG07  25266.944969   5507.773330  -6443.440792     -0.322534
PG08  20578.825348  -2273.141985 -16954.816236      5.336831
PG09 -17747.091109 -15622.587063 -12689.625341      5.697635
PG10   5214.221367 -23244.344317  11185.318262    -42.236425
PG11  22216.152354  11398.476826  -9813.230451    -61.637526
PG12 -11986.218015 -19536.999820  13602.021014   -117.053092
PG13  20526.708968   -753.081380  16710.520904    304.592477
PG14 -21510.243107  15461.439334    215.415064     43.868216
PG15      0.000000      0.000000      0.000000 999999.999999
PG16  -2920.460301  24886.073626   8419.746678    -69.993550
PG17  21544.024435 -15298.959127   -928.889024    149.815090
PG18 -15782.277442  -1925.515123 -21044.264384     67.292460
PG19   4083.176212  15267.412167 -21271.538607    -33.877890
PG20  13968.376301  17007.710427  14766.331147     56.374634
PG21 -24855.047178  -2750.614837  -9496.265089    -59.134893
PG22 -13104.513518  12064.402807 -19513.770377    172.450658
PG23  15167.362877   6449.221812  20866.060804    371.373004
PG24 -20487.787272   3407.931877 -16349.866577    286.064860
PG25      0.000000      0.000000      0.000000 999999.999999
PG26 -13713.114180  -8014.569309 -21894.297867    -49.935035
PG27 -16001.848357 -15413.528823 -13983.727983    150.643460
PG28  13184.685817  -9275.101215 -20574.823126    -16.564954
PG29 -20462.947852    269.355849  17005.442802    118.840473
PG30 -15521.727706  -8768.388903  19313.918162    241.297003
PG31 -12005.046433  10704.998877  21375.658814    -37.396989
PG32   7931.456586  23864.450350   9400.061428     32.714141
*  2010  5 10  9 15  0.00000000
PG01 -12035.927527  11620.797572  20495.011501   -117.841433
PG02    603.164201 -16015.256639  21198.924359    254.324199
PG03  -5096.598606  21944.666951 -14157.639272    553.019969
PG04  16812.962135  -8750.655582  18574.485964     78.692706
PG05  -1493.163084 -25867.270402   5617.264875     -2.718432
PG06 -10461.045885  21683.079562 -10876.132632    644.026106
PG07  25733.505262   5898.827716  -3652.880631     -0.322841
PG08  22185.874688  -1463.871317 -14938.874978      5.337036
PG09 -16284.550570 -15281.424194 -14957.068739      5.699681
PG10   5684.003313 -21845.454697  13526.777910    -42.237243
PG11  20958.342215  11610.367306 -12092.005688    -61.639572
PG12 -12043.262995 -20954.240955  11240.709776   -117.049204
PG13  18943.746501    524.190567  18478.190258    304.592170
PG14 -21502.297138  15212.978627  -2692.929395     43.872207
PG15      0.000000      0.000000      0.000000 999999.999999
PG16  -3300.567744  23817.584907  11012.021886    -69.996926
PG17  21494.772200 -14908.638835  -3778.297332    149.817239
PG18 -16097.290293  -4339.604660 -20479.799443     67.294608
PG19   2077.944259  16598.225534 -20526.595277    -33.880243
PG20  14051.557854  18615.422634  12615.848870     56.374123
PG21 -25665.768464  -3345.801528  -6946.807278    -59.137246
PG22 -13560.500532   9776.399435 -20460.193709    172.449840
PG23  13323.756717   8025.019828  21538.197821    371.371776
PG24 -22042.754199   2513.706853 -14358.012894    286.067725
PG25      0.000000      0.000000      0.000000 999999.999999
PG26 -11776.674244  -9444.707087 -22420.895634    -49.939537
PG27 -14213.660931 -15032.566278 -16061.369627    150.646530
PG28  13603.492758  -6812.597785 -21263.767077    -16.564136
PG29 -18963.313935  -1098.068025  18644.323233    118.843031
PG30 -15861.899326 -10950.077604  17905.673602    241.300072
PG31 -14183.221961   9843.403311  20440.979863    -37.394942
PG32   7799.242620  24754.877435   6767.456396     32.706467
*  2010  5 10  9 30  0.00000000
PG01 -12692.510237   9297.273372  21278.431740   -117.845117
PG02   2967.451694 -15374.858120  21430.968911    254.327370
PG03  -6248.091770  22890.074461 -11940.876358    553.024471
PG04  18746.576768  -8014.812089  17037.298191     78.700277
PG05  -1053.409625 -25150.192034   8322.112557     -2.719251
PG06 -11464.196542  22294.138798  -8371.631590    644.016283
PG07  25915.555507   6172.027610   -800.094873     -0.323148
PG08  23610.192399   -835.523567 -12672.275818      5.337241
PG09 -14577.727902 -14960.216996 -16976.135077      5.701728
PG10   6276.099312 -20223.345540  15628.909037    -42.238062
PG11  19470.873593  11858.709624 -14169.052329    -61.641618
PG12 -12114.974511 -22095.913726   8687.984341   -117.045316
PG13  17293.920235   2007.054898  19924.577735    304.591863
PG14 -21259.649110  14748.867450  -5554.474539     43.876197
PG15      0.000000      0.000000      0.000000 999999.999999
PG16  -3794.537895  22493.299973  13412.346812    -70.000303
PG17  21227.699565 -14300.959096  -6561.706414    149.819388
PG18 -16509.831093  -6648.524255 -19556.814596     67.296757
PG19    222.876990  17965.572397 -19425.221513    -33.882597
PG20  14146.514279  19969.183907  10247.172817     56.373611
PG21 -26225.898576  -3809.186540  -4280.906353    -59.139599
PG22 -14142.261466   7427.563257 -21048.991680    172.449021
PG23  11524.195200   9736.622389  21840.025257    371.370548
PG24 -23414.039760   1778.650005 -12115.307542    286.070590
PG25      0.000000      0.000000      0.000000 999999.999999
PG26  -9895.399487 -11011.976262 -22581.399170    -49.944039
PG27 -12184.218402 -14697.081491 -17850.759058    150.649599
PG28  14160.816784  -4320.525601 -21569.224788    -16.563317
PG29 -17412.590953  -2651.903209  19964.391659    118.845589
PG30 -16263.022420 -12936.057630  16180.373820    241.303142
PG31 -16286.265300   9139.635144  19162.216429    -37.392896
PG32   7668.046585  25354.871608   4021.769551     32.698793
*  2010  5 10  9 45  0.00000000
PG01 -13489.786577   6947.357286  21691.694215   -117.848800
PG02   5369.926968 -14848.481409  21293.499470    254.330542
PG03  -7204.862263  23678.196975  -9518.699442    553.028973
PG04  20525.699607  -7419.495659  15207.213341     78.707849
PG05   -488.491120 -24171.599725  10882.950971     -2.720069
PG06 -12247.479203  22728.645528  -5720.898701    644.006461
PG07  25797.572237   6362.304455   2066.320763     -0.323455
PG08  24812.400694   -369.380987 -10193.570755      5.337445
PG09 -12653.664299 -14694.336191 -18714.509278      5.703774
PG10   7009.372960 -18417.204285  17454.611025    -42.238880
PG11  17778.837685  12169.064379 -16009.839785    -61.643665
PG12 -12163.294347 -22948.032202   5987.312966   -117.041428
PG13  15624.667635   3681.713962  21024.189325    304.591556
PG14 -20814.803660  14046.098483  -8319.366784     43.880188
PG15      0.000000      0.000000      0.000000 999999.999999
PG16  -4427.334571  20947.928788  15579.288701    -70.003679
PG17  20775.831096 -13457.271518  -9230.413139    149.821537
PG18 -16999.039547  -8810.752955 -18292.821771     67.298906
PG19  -1455.595014  19329.405051 -17985.806706    -33.884950
PG20  14217.941751  21052.692346   7701.545338     56.373100
PG21 -26515.242846  -4169.574884  -1543.600088    -59.141953
PG22 -14847.082545   5065.290780 -21269.995176    172.448203
PG23   9807.223937  11553.172460  21765.385681    371.369320
PG24 -24563.564523   1185.794663  -9660.836663    286.073455
PG25      0.000000      0.000000      0.000000 999999.999999
PG26  -8107.569786 -12687.176198 -22372.066530    -49.948541
PG27  -9947.990405 -14439.460698 -19317.799284    150.652669
PG28  14849.908257  -1851.058590 -21486.379786    -16.562499
PG29 -15854.358359  -4376.120404  20943.361945    118.848147
PG30 -16692.824141 -14694.516231  14169.485432    241.306211
PG31 -18267.336388   8589.594542  17560.935709    -37.390850
PG32   7500.467511  25657.885973   1208.670731     32.691119
EOF
